[{"OBJECT_NAME":"STARLINK-5422","OBJECT_ID":"2022-175AY","EPOCH":"2026-03-09T06:34:29.505504","MEAN_MOTION":15.08836054,"ECCENTRICITY":0.0001453,"INCLINATION":53.2195,"RA_OF_ASC_NODE":30.5034,"ARG_OF_PERICENTER":86.8702,"MEAN_ANOMALY":273.2456,"EPHEMERIS_TYPE":0,"CLASSIFICATION_TYPE":"U","NORAD_CAT_ID":54804,"ELEMENT_SET_NO":999,"REV_AT_EPOCH":18007,"BSTAR":1.0995139e-5,"MEAN_MOTION_DOT":-1.13e-6,"MEAN_MOTION_DDOT":0},{"OBJECT_NAME":"DELTA 1 DEB","OBJECT_ID":"1977-065AE","EPOCH":"2026-03-09T11:34:18.251616","MEAN_MOTION":13.74851839,"ECCENTRICITY":0.06655628,"INCLINATION":29.0857,"RA_OF_ASC_NODE":187.1877,"ARG_OF_PERICENTER":7.8635,"MEAN_ANOMALY":353.1809,"EPHEMERIS_TYPE":0,"CLASSIFICATION_TYPE":"U","NORAD_CAT_ID":10201,"ELEMENT_SET_NO":999,"REV_AT_EPOCH":39513,"BSTAR":0.00029282794,"MEAN_MOTION_DOT":1.63e-5,"MEAN_MOTION_DDOT":0}]
